OBJECT_NAME,OBJECT_ID,EPOCH,MEAN_MOTION,ECCENTRICITY,INCLINATION,RA_OF_ASC_NODE,ARG_OF_PERICENTER,MEAN_ANOMALY,EPHEMERIS_TYPE,CLASSIFICATION_TYPE,NORAD_CAT_ID,ELEMENT_SET_NO,REV_AT_EPOCH,BSTAR,MEAN_MOTION_DOT,MEAN_MOTION_DDOT
SL-8 R/B,1985-006B,2026-07-17T23:42:15.869088,14.37846244,.0019259,74.0455,21.3817,264.0000,210.9413,0,U,15483,999,17275,.48457185E-4,.12E-5,0
SL-12 R/B(2),1985-042D,2026-07-18T02:49:26.342400,14.22011265,.00373695,71.1068,172.1670,281.9048,159.4126,0,U,15772,999,13293,.51738614E-4,.67E-6,0
SL-14 R/B,1985-069B,2026-07-18T03:11:34.888416,14.86536305,.00201872,82.5259,262.2633,118.1724,242.1535,0,U,15945,999,19221,.20429061E-4,.206E-5,0
SL-16 R/B,1985-097B,2026-07-18T04:42:51.400800,14.16614233,.00057752,71.0005,225.7939,45.6493,19.3892,0,U,16182,999,10571,.14302331E-3,.238E-5,0
SL-14 R/B,1986-006B,2026-07-18T04:59:57.546816,14.86969565,.00757246,82.5284,136.9226,198.7795,161.0627,0,U,16496,999,16860,.22130765E-4,.235E-5,0
COSMOS 1743,1986-034A,2026-07-18T05:13:35.663232,15.69852197,.00054921,82.5274,295.6694,167.4923,192.6476,0,U,16719,999,20065,.31038426E-3,.37175E-3,0
SL-14 R/B,1986-046B,2026-07-18T06:27:22.866624,14.85691899,.00237984,82.4840,316.8067,153.0761,207.1696,0,U,16792,999,14579,.25947523E-4,.251E-5,0
SL-14 R/B,1986-055B,2026-07-18T00:02:57.605568,14.85741359,.00173393,82.5206,4.1569,260.1628,221.2724,0,U,16882,999,13871,.20535822E-4,.203E-5,0
AJISAI (EGS),1986-061A,2026-07-18T05:20:17.333376,12.44516669,.00110794,50.0103,51.9629,259.6418,206.5395,0,U,16908,999,48425,-.5796235E-5,-.98E-6,0
SL-14 R/B,1987-024B,2026-07-18T07:44:04.368192,14.86233018,.0018099,82.5300,329.9850,183.2518,176.8584,0,U,17567,999,10753,.23704806E-4,.233E-5,0
COSMOS 1833,1987-027A,2026-07-18T01:02:10.009824,14.13067272,.00244388,70.9212,52.0140,4.1424,355.9895,0,U,17589,999,2873,.44031173E-4,.34E-6,0
SL-16 R/B,1987-027B,2026-07-18T04:51:39.760128,14.17174566,.00071705,71.0035,1.4681,278.6262,81.4049,0,U,17590,999,3383,.12496386E-3,.204E-5,0
SL-14 R/B,1987-038B,2026-07-17T23:31:42.685824,14.85462487,.00208779,82.5015,174.0667,93.7019,266.6585,0,U,17912,999,9857,.20072578E-4,.198E-5,0
COSMOS 1844,1987-041A,2026-07-18T05:18:25.233696,14.14581228,.00311232,70.8999,118.8476,190.9429,169.1020,0,U,17973,999,2204,.26403661E-4,.3E-7,0
SL-14 R/B,1987-055B,2026-07-18T03:16:12.783648,14.85727958,.00192527,82.4969,226.0522,304.7688,55.1715,0,U,18153,999,8930,.16825474E-4,.17E-5,0
COSMOS 1867,1987-060A,2026-07-18T06:59:16.853856,14.31518708,.00172286,65.0117,300.9497,281.9745,77.9408,0,U,18187,999,3863,.16893273E-4,-.55E-6,0
SL-14 R/B,1988-001B,2026-07-18T01:45:18.434592,14.85627765,.00183887,82.5118,72.7144,162.4244,197.7613,0,U,18749,999,6138,.19275329E-4,.192E-5,0
COSMOS 1933,1988-020A,2026-07-18T04:48:10.794816,15.18900396,.00059072,82.5141,121.7220,99.8436,260.3466,0,U,18958,999,7003,.94861154E-4,.2011E-4,0
SL-3 R/B,1988-032B,2026-07-18T05:31:51.597120,15.21044462,.00267634,97.5278,182.2475,135.5692,224.7697,0,U,19046,999,7194,.98139682E-4,.2127E-4,0
SL-16 R/B,1988-039B,2026-07-18T06:21:44.322048,14.19631427,.00204579,71.0141,152.4437,144.4478,215.8015,0,U,19120,999,97691,.72517004E-4,.105E-5,0
COSMOS 1953,1988-050A,2026-07-18T00:22:09.977664,15.30359360,.0011234,82.5066,26.9330,30.9519,329.2381,0,U,19210,999,5770,.13536324E-3,.4014E-4,0
SL-8 R/B,1988-053B,2026-07-18T03:36:53.921376,14.38979193,.00198432,74.0454,231.9808,16.6691,40.1444,0,U,19257,999,99536,.42158879E-4,.104E-5,0
COSMOS 1975,1988-093A,2026-07-17T21:39:57.524832,15.29681416,.00124225,82.5207,346.7944,74.0867,286.1741,0,U,19573,999,3930,.12886735E-3,.3747E-4,0
SL-14 R/B,1988-093B,2026-07-18T04:27:00.306144,14.85761087,.0019762,82.5313,279.5450,330.1000,91.8585,0,U,19574,999,2039,.1947743E-4,.194E-5,0
SL-16 R/B,1988-102B,2026-07-18T03:43:09.578208,14.16166766,.00141417,70.9974,236.9792,180.8536,179.2566,0,U,19650,999,94536,.51078474E-4,.53E-6,0
INTERCOSMOS 24,1989-080A,2026-07-17T23:45:00.432576,12.59692665,.1187035,82.6053,19.5948,350.4595,7.5610,0,U,20261,999,68320,.28601227E-4,.11E-5,0
SL-14 R/B,1989-080C,2026-07-18T02:56:48.606720,12.50578800,.12288025,82.5932,89.4308,246.5918,100.1438,0,U,20262,999,67645,.16180276E-4,.57E-6,0
DELTA 1 R/B,1989-089B,2026-07-18T02:51:10.708416,14.50748771,.00705924,97.0636,25.7272,70.9430,289.9397,0,U,20323,999,91464,.36732809E-4,.114E-5,0
ARIANE 40 R/B,1990-005H,2026-07-18T04:12:27.143424,14.39941501,.00104693,98.2942,255.8251,165.3070,194.8425,0,U,20443,999,91158,.403525E-4,.85E-6,0
DELTA 2 R/B(1),1990-008B,2026-07-17T21:01:23.631744,15.74039137,.00576935,35.5993,29.5617,41.6302,318.8812,0,U,20453,999,94653,.53986858E-3,.89709E-3,0
