SL-8 R/B                
1 15483U 85006B   26198.98768367  .00000120  00000+0  48457-4 0  9994
2 15483  74.0455  21.3817 0019259 264.0000 210.9413 14.37846244172753
SL-12 R/B(2)            
1 15772U 85042D   26199.11766600  .00000067  00000+0  51739-4 0  9996
2 15772  71.1068 172.1670 0037369 281.9048 159.4126 14.22011265132931
SL-14 R/B               
1 15945U 85069B   26199.13304269  .00000206  00000+0  20429-4 0  9995
2 15945  82.5259 262.2633 0020187 118.1724 242.1535 14.86536305192211
SL-16 R/B               
1 16182U 85097B   26199.19642825  .00000238  00000+0  14302-3 0  9996
2 16182  71.0005 225.7939 0005775  45.6493  19.3892 14.16614233105712
SL-14 R/B               
1 16496U 86006B   26199.20830494  .00000235  00000+0  22131-4 0  9995
2 16496  82.5284 136.9226 0075724 198.7795 161.0627 14.86969565168600
COSMOS 1743             
1 16719U 86034A   26199.21777388  .00037175  00000+0  31038-3 0  9995
2 16719  82.5274 295.6694 0005492 167.4923 192.6476 15.69852197200658
SL-14 R/B               
1 16792U 86046B   26199.26901466  .00000251  00000+0  25948-4 0  9999
2 16792  82.4840 316.8067 0023798 153.0761 207.1696 14.85691899145793
SL-14 R/B               
1 16882U 86055B   26199.00205562  .00000203  00000+0  20536-4 0  9990
2 16882  82.5206   4.1569 0017339 260.1628 221.2724 14.85741359138710
AJISAI (EGS)            
1 16908U 86061A   26199.22242284 -.00000098  00000+0 -57962-5 0  9990
2 16908  50.0103  51.9629 0011079 259.6418 206.5395 12.44516669484257
SL-14 R/B               
1 17567U 87024B   26199.32227278  .00000233  00000+0  23705-4 0  9995
2 17567  82.5300 329.9850 0018099 183.2518 176.8584 14.86233018107538
COSMOS 1833             
1 17589U 87027A   26199.04317141  .00000034  00000+0  44031-4 0  9994
2 17589  70.9212  52.0140 0024438   4.1424 355.9895 14.13067272 28738
SL-16 R/B               
1 17590U 87027B   26199.20254352  .00000204  00000+0  12496-3 0  9996
2 17590  71.0035   1.4681 0007170 278.6262  81.4049 14.17174566 33833
SL-14 R/B               
1 17912U 87038B   26198.98035516  .00000198  00000+0  20073-4 0  9992
2 17912  82.5015 174.0667 0020877  93.7019 266.6585 14.85462487 98573
COSMOS 1844             
1 17973U 87041A   26199.22112539  .00000003  00000+0  26404-4 0  9991
2 17973  70.8999 118.8476 0031123 190.9429 169.1020 14.14581228 22043
SL-14 R/B               
1 18153U 87055B   26199.13625907  .00000170  00000+0  16825-4 0  9996
2 18153  82.4969 226.0522 0019252 304.7688  55.1715 14.85727958 89302
COSMOS 1867             
1 18187U 87060A   26199.29116729 -.00000055  00000+0  16893-4 0  9991
2 18187  65.0117 300.9497 0017228 281.9745  77.9408 14.31518708 38638
SL-14 R/B               
1 18749U 88001B   26199.07313003  .00000192  00000+0  19275-4 0  9999
2 18749  82.5118  72.7144 0018388 162.4244 197.7613 14.85627765 61385
COSMOS 1933             
1 18958U 88020A   26199.20012494  .00002011  00000+0  94861-4 0  9993
2 18958  82.5141 121.7220 0005907  99.8436 260.3466 15.18900396 70038
SL-3 R/B                
1 19046U 88032B   26199.23045830  .00002127  00000+0  98140-4 0  9990
2 19046  97.5278 182.2475 0026763 135.5692 224.7697 15.21044462 71941
SL-16 R/B               
1 19120U 88039B   26199.26509632  .00000105  00000+0  72517-4 0  9992
2 19120  71.0141 152.4437 0020457 144.4478 215.8015 14.19631427976917
COSMOS 1953             
1 19210U 88050A   26199.01539326  .00004014  00000+0  13536-3 0  9999
2 19210  82.5066  26.9330 0011234  30.9519 329.2381 15.30359360 57705
SL-8 R/B                
1 19257U 88053B   26199.15062409  .00000104  00000+0  42159-4 0  9991
2 19257  74.0454 231.9808 0019843  16.6691  40.1444 14.38979193995368
COSMOS 1975             
1 19573U 88093A   26198.90274913  .00003747  00000+0  12887-3 0  9993
2 19573  82.5207 346.7944 0012422  74.0867 286.1741 15.29681416 39308
SL-14 R/B               
1 19574U 88093B   26199.18542021  .00000194  00000+0  19477-4 0  9999
2 19574  82.5313 279.5450 0019762 330.1000  91.8585 14.85761087 20391
SL-16 R/B               
1 19650U 88102B   26199.15497197  .00000053  00000+0  51078-4 0  9992
2 19650  70.9974 236.9792 0014141 180.8536 179.2566 14.16166766945366
INTERCOSMOS 24          
1 20261U 89080A   26198.98958834  .00000110  00000+0  28601-4 0  9998
2 20261  82.6053  19.5948 1187035 350.4595   7.5610 12.59692665683208
SL-14 R/B               
1 20262U 89080C   26199.12278480  .00000057  00000+0  16180-4 0  9997
2 20262  82.5932  89.4308 1228802 246.5918 100.1438 12.50578800676454
DELTA 1 R/B             
1 20323U 89089B   26199.11887394  .00000114  00000+0  36733-4 0  9993
2 20323  97.0636  25.7272 0070592  70.9430 289.9397 14.50748771914649
ARIANE 40 R/B           
1 20443U 90005H   26199.17531416  .00000085  00000+0  40352-4 0  9992
2 20443  98.2942 255.8251 0010469 165.3070 194.8425 14.39941501911583
DELTA 2 R/B(1)          
1 20453U 90008B   26198.87596796  .00089709  00000+0  53987-3 0  9991
2 20453  35.5993  29.5617 0057693  41.6302 318.8812 15.74039137946534
